<?xml version="1.0" encoding="UTF-8"?>
<ndm xmlns:xsi="http://www.w3.org/2001/XMLSchema-instance" xsi:noNamespaceSchemaLocation="https://sanaregistry.org/r/ndmxml/ndmxml-1.0-master.xsd">
<omm id="CCSDS_OMM_VERS" version="2.0">
<header><CREATION_DATE/><ORIGINATOR/></header><body><segment><metadata><OBJECT_NAME>1998-067RA</OBJECT_NAME><OBJECT_ID>1998-067RA</OBJECT_ID><CENTER_NAME>EARTH</CENTER_NAME><REF_FRAME>TEME</REF_FRAME><TIME_SYSTEM>UTC</TIME_SYSTEM><MEAN_ELEMENT_THEORY>SGP4</MEAN_ELEMENT_THEORY></metadata><data><meanElements><EPOCH>2020-12-14T05:15:11.051424</EPOCH><MEAN_MOTION>15.53586126</MEAN_MOTION><ECCENTRICITY>.0006827</ECCENTRICITY><INCLINATION>51.6383</INCLINATION><RA_OF_ASC_NODE>172.8107</RA_OF_ASC_NODE><ARG_OF_PERICENTER>304.4663</ARG_OF_PERICENTER><MEAN_ANOMALY>55.5682</MEAN_ANOMALY></meanElements><tleParameters><EPHEMERIS_TYPE>0</EPHEMERIS_TYPE><CLASSIFICATION_TYPE>U</CLASSIFICATION_TYPE><NORAD_CAT_ID>45257</NORAD_CAT_ID><ELEMENT_SET_NO>999</ELEMENT_SET_NO><REV_AT_EPOCH>4642</REV_AT_EPOCH><BSTAR>.13921E-3</BSTAR><MEAN_MOTION_DOT>.8573E-4</MEAN_MOTION_DOT><MEAN_MOTION_DDOT>0</MEAN_MOTION_DDOT></tleParameters></data></segment></body></omm>
<omm id="CCSDS_OMM_VERS" version="2.0">
<header><CREATION_DATE/><ORIGINATOR/></header><body><segment><metadata><OBJECT_NAME>PHOENIX</OBJECT_NAME><OBJECT_ID>1998-067RB</OBJECT_ID><CENTER_NAME>EARTH</CENTER_NAME><REF_FRAME>TEME</REF_FRAME><TIME_SYSTEM>UTC</TIME_SYSTEM><MEAN_ELEMENT_THEORY>SGP4</MEAN_ELEMENT_THEORY></metadata><data><meanElements><EPOCH>2020-12-15T05:22:21.205056</EPOCH><MEAN_MOTION>15.53096947</MEAN_MOTION><ECCENTRICITY>.0005286</ECCENTRICITY><INCLINATION>51.6384</INCLINATION><RA_OF_ASC_NODE>168.2603</RA_OF_ASC_NODE><ARG_OF_PERICENTER>287.8186</ARG_OF_PERICENTER><MEAN_ANOMALY>72.2228</MEAN_ANOMALY></meanElements><tleParameters><EPHEMERIS_TYPE>0</EPHEMERIS_TYPE><CLASSIFICATION_TYPE>U</CLASSIFICATION_TYPE><NORAD_CAT_ID>45258</NORAD_CAT_ID><ELEMENT_SET_NO>999</ELEMENT_SET_NO><REV_AT_EPOCH>4654</REV_AT_EPOCH><BSTAR>.13505E-3</BSTAR><MEAN_MOTION_DOT>.8148E-4</MEAN_MOTION_DOT><MEAN_MOTION_DDOT>0</MEAN_MOTION_DDOT></tleParameters></data></segment></body></omm>
<omm id="CCSDS_OMM_VERS" version="2.0">
<header><CREATION_DATE/><ORIGINATOR/></header><body><segment><metadata><OBJECT_NAME>1998-067RC</OBJECT_NAME><OBJECT_ID>1998-067RC</OBJECT_ID><CENTER_NAME>EARTH</CENTER_NAME><REF_FRAME>TEME</REF_FRAME><TIME_SYSTEM>UTC</TIME_SYSTEM><MEAN_ELEMENT_THEORY>SGP4</MEAN_ELEMENT_THEORY></metadata><data><meanElements><EPOCH>2020-12-14T23:00:34.556256</EPOCH><MEAN_MOTION>15.55045612</MEAN_MOTION><ECCENTRICITY>.0005994</ECCENTRICITY><INCLINATION>51.6379</INCLINATION><RA_OF_ASC_NODE>168.0015</RA_OF_ASC_NODE><ARG_OF_PERICENTER>302.5053</ARG_OF_PERICENTER><MEAN_ANOMALY>57.5358</MEAN_ANOMALY></meanElements><tleParameters><EPHEMERIS_TYPE>0</EPHEMERIS_TYPE><CLASSIFICATION_TYPE>U</CLASSIFICATION_TYPE><NORAD_CAT_ID>45259</NORAD_CAT_ID><ELEMENT_SET_NO>999</ELEMENT_SET_NO><REV_AT_EPOCH>4655</REV_AT_EPOCH><BSTAR>.21582E-3</BSTAR><MEAN_MOTION_DOT>.14323E-3</MEAN_MOTION_DOT><MEAN_MOTION_DDOT>0</MEAN_MOTION_DDOT></tleParameters></data></segment></body></omm>
<omm id="CCSDS_OMM_VERS" version="2.0">
<header><CREATION_DATE/><ORIGINATOR/></header><body><segment><metadata><OBJECT_NAME>CRYOCUBE</OBJECT_NAME><OBJECT_ID>1998-067RD</OBJECT_ID><CENTER_NAME>EARTH</CENTER_NAME><REF_FRAME>TEME</REF_FRAME><TIME_SYSTEM>UTC</TIME_SYSTEM><MEAN_ELEMENT_THEORY>SGP4</MEAN_ELEMENT_THEORY></metadata><data><meanElements><EPOCH>2020-12-14T11:40:34.231584</EPOCH><MEAN_MOTION>15.54997344</MEAN_MOTION><ECCENTRICITY>.0006665</ECCENTRICITY><INCLINATION>51.6380</INCLINATION><RA_OF_ASC_NODE>170.0995</RA_OF_ASC_NODE><ARG_OF_PERICENTER>301.5905</ARG_OF_PERICENTER><MEAN_ANOMALY>58.4434</MEAN_ANOMALY></meanElements><tleParameters><EPHEMERIS_TYPE>0</EPHEMERIS_TYPE><CLASSIFICATION_TYPE>U</CLASSIFICATION_TYPE><NORAD_CAT_ID>45260</NORAD_CAT_ID><ELEMENT_SET_NO>999</ELEMENT_SET_NO><REV_AT_EPOCH>4649</REV_AT_EPOCH><BSTAR>.19957E-3</BSTAR><MEAN_MOTION_DOT>.13184E-3</MEAN_MOTION_DOT><MEAN_MOTION_DDOT>0</MEAN_MOTION_DDOT></tleParameters></data></segment></body></omm>
<omm id="CCSDS_OMM_VERS" version="2.0">
<header><CREATION_DATE/><ORIGINATOR/></header><body><segment><metadata><OBJECT_NAME>AZTECHSAT-1</OBJECT_NAME><OBJECT_ID>1998-067RE</OBJECT_ID><CENTER_NAME>EARTH</CENTER_NAME><REF_FRAME>TEME</REF_FRAME><TIME_SYSTEM>UTC</TIME_SYSTEM><MEAN_ELEMENT_THEORY>SGP4</MEAN_ELEMENT_THEORY></metadata><data><meanElements><EPOCH>2020-12-14T21:59:05.311680</EPOCH><MEAN_MOTION>15.56313453</MEAN_MOTION><ECCENTRICITY>.0006318</ECCENTRICITY><INCLINATION>51.6376</INCLINATION><RA_OF_ASC_NODE>166.9670</RA_OF_ASC_NODE><ARG_OF_PERICENTER>300.8016</ARG_OF_PERICENTER><MEAN_ANOMALY>59.2353</MEAN_ANOMALY></meanElements><tleParameters><EPHEMERIS_TYPE>0</EPHEMERIS_TYPE><CLASSIFICATION_TYPE>U</CLASSIFICATION_TYPE><NORAD_CAT_ID>45261</NORAD_CAT_ID><ELEMENT_SET_NO>999</ELEMENT_SET_NO><REV_AT_EPOCH>4655</REV_AT_EPOCH><BSTAR>.26257E-3</BSTAR><MEAN_MOTION_DOT>.18399E-3</MEAN_MOTION_DOT><MEAN_MOTION_DDOT>0</MEAN_MOTION_DDOT></tleParameters></data></segment></body></omm>
<omm id="CCSDS_OMM_VERS" version="2.0">
<header><CREATION_DATE/><ORIGINATOR/></header><body><segment><metadata><OBJECT_NAME>RADSAT-U</OBJECT_NAME><OBJECT_ID>1998-067RF</OBJECT_ID><CENTER_NAME>EARTH</CENTER_NAME><REF_FRAME>TEME</REF_FRAME><TIME_SYSTEM>UTC</TIME_SYSTEM><MEAN_ELEMENT_THEORY>SGP4</MEAN_ELEMENT_THEORY></metadata><data><meanElements><EPOCH>2020-12-14T18:46:56.811936</EPOCH><MEAN_MOTION>15.53773649</MEAN_MOTION><ECCENTRICITY>.0005711</ECCENTRICITY><INCLINATION>51.6397</INCLINATION><RA_OF_ASC_NODE>169.8431</RA_OF_ASC_NODE><ARG_OF_PERICENTER>343.7215</ARG_OF_PERICENTER><MEAN_ANOMALY>16.3591</MEAN_ANOMALY></meanElements><tleParameters><EPHEMERIS_TYPE>0</EPHEMERIS_TYPE><CLASSIFICATION_TYPE>U</CLASSIFICATION_TYPE><NORAD_CAT_ID>45262</NORAD_CAT_ID><ELEMENT_SET_NO>999</ELEMENT_SET_NO><REV_AT_EPOCH>4652</REV_AT_EPOCH><BSTAR>.16039E-3</BSTAR><MEAN_MOTION_DOT>.1002E-3</MEAN_MOTION_DOT><MEAN_MOTION_DDOT>0</MEAN_MOTION_DDOT></tleParameters></data></segment></body></omm>
<omm id="CCSDS_OMM_VERS" version="2.0">
<header><CREATION_DATE/><ORIGINATOR/></header><body><segment><metadata><OBJECT_NAME>QARMAN</OBJECT_NAME><OBJECT_ID>1998-067RG</OBJECT_ID><CENTER_NAME>EARTH</CENTER_NAME><REF_FRAME>TEME</REF_FRAME><TIME_SYSTEM>UTC</TIME_SYSTEM><MEAN_ELEMENT_THEORY>SGP4</MEAN_ELEMENT_THEORY></metadata><data><meanElements><EPOCH>2020-12-13T18:34:11.605152</EPOCH><MEAN_MOTION>15.54825156</MEAN_MOTION><ECCENTRICITY>.0005991</ECCENTRICITY><INCLINATION>51.6380</INCLINATION><RA_OF_ASC_NODE>174.3352</RA_OF_ASC_NODE><ARG_OF_PERICENTER>293.5911</ARG_OF_PERICENTER><MEAN_ANOMALY>66.4451</MEAN_ANOMALY></meanElements><tleParameters><EPHEMERIS_TYPE>0</EPHEMERIS_TYPE><CLASSIFICATION_TYPE>U</CLASSIFICATION_TYPE><NORAD_CAT_ID>45263</NORAD_CAT_ID><ELEMENT_SET_NO>999</ELEMENT_SET_NO><REV_AT_EPOCH>4639</REV_AT_EPOCH><BSTAR>.21577E-3</BSTAR><MEAN_MOTION_DOT>.14201E-3</MEAN_MOTION_DOT><MEAN_MOTION_DDOT>0</MEAN_MOTION_DDOT></tleParameters></data></segment></body></omm>
<omm id="CCSDS_OMM_VERS" version="2.0">
<header><CREATION_DATE/><ORIGINATOR/></header><body><segment><metadata><OBJECT_NAME>SORTIE</OBJECT_NAME><OBJECT_ID>1998-067RH</OBJECT_ID><CENTER_NAME>EARTH</CENTER_NAME><REF_FRAME>TEME</REF_FRAME><TIME_SYSTEM>UTC</TIME_SYSTEM><MEAN_ELEMENT_THEORY>SGP4</MEAN_ELEMENT_THEORY></metadata><data><meanElements><EPOCH>2020-12-14T18:53:44.648448</EPOCH><MEAN_MOTION>15.52290801</MEAN_MOTION><ECCENTRICITY>.0006799</ECCENTRICITY><INCLINATION>51.6399</INCLINATION><RA_OF_ASC_NODE>171.3631</RA_OF_ASC_NODE><ARG_OF_PERICENTER>314.2180</ARG_OF_PERICENTER><MEAN_ANOMALY>45.8251</MEAN_ANOMALY></meanElements><tleParameters><EPHEMERIS_TYPE>0</EPHEMERIS_TYPE><CLASSIFICATION_TYPE>U</CLASSIFICATION_TYPE><NORAD_CAT_ID>45264</NORAD_CAT_ID><ELEMENT_SET_NO>999</ELEMENT_SET_NO><REV_AT_EPOCH>4649</REV_AT_EPOCH><BSTAR>.87166E-4</BSTAR><MEAN_MOTION_DOT>.4934E-4</MEAN_MOTION_DOT><MEAN_MOTION_DDOT>0</MEAN_MOTION_DDOT></tleParameters></data></segment></body></omm>

</ndm>
